     2.100          NAVIGATION                              RINEX VERSION / TYPE
fic2rin                                 04/01/2009 02:02:44 PGM / RUN BY / DATE
                                                            END OF HEADER
 3 09  3 31 10  0  0.0  .372977927327D-03  .522959453519D-11  .000000000000D+00
     .580000000000D+02 -.203437500000D+02  .570023743777D-08  .312829403629D+01
    -.118277966976D-05  .117364943726D-01  .644847750664D-05  .515373623085D+04
     .208800000000D+06  .931322574615D-08 -.552560487631D+00 -.223517417908D-06
     .926347327204D+00  .234968750000D+03  .894221252659D+00 -.828034490960D-08
    -.992898501065D-10  .100000000000D+01  .152500000000D+04  .000000000000D+00
     .240000000000D+01  .000000000000D+00 -.419095158577D-08  .580000000000D+02
     .201606000000D+06  .400000000000D+01
 4 09  3 31 10  0  0.0 -.333185307682D-04 -.146656020661D-10  .000000000000D+00
     .820000000000D+02  .468437500000D+02  .490413284825D-08  .526187129235D-01
     .250153243542D-05  .860499299597D-02  .100787729025D-04  .515371396065D+04
     .208800000000D+06  .633299350739D-07  .612506889919D+00  .113621354103D-06
     .941129931531D+00  .171812500000D+03  .483292700498D+00 -.822748556494D-08
    -.425374861428D-09  .100000000000D+01  .152500000000D+04  .000000000000D+00
     .240000000000D+01  .000000000000D+00 -.605359673500D-08  .820000000000D+02
     .201606000000D+06  .400000000000D+01
 5 09  3 31 10  0  0.0 -.207005068660D-04 -.110276232590D-10  .000000000000D+00
     .113000000000D+03 -.145312500000D+02  .512092759290D-08 -.299440402129D+00
    -.864267349243D-06  .948299386073D-02  .864453613758D-05  .515359094048D+04
     .208800000000D+06 -.100582838058D-06 -.158349895420D+01  .987201929092D-07
     .945230719122D+00  .210500000000D+03  .129696072442D+01 -.838284917932D-08
     .576452582992D-09  .100000000000D+01  .152500000000D+04  .000000000000D+00
     .685000000000D+01  .630000000000D+02 -.419095158577D-08  .113000000000D+03
     .201606000000D+06  .400000000000D+01
 7 09  3 31 10  0  0.0  .210255384445D-04 -.454747350886D-12  .000000000000D+00
     .340000000000D+02 -.916875000000D+02  .420124642735D-08  .171249938642D+01
    -.483728945255D-05  .237098371144D-02  .798888504505D-05  .515367858696D+04
     .208800000000D+06 -.167638063431D-07 -.253482745527D+01  .242143869400D-07
     .966787699160D+00  .229406250000D+03  .290437816100D+01 -.786389899153D-08
     .161435295857D-09  .100000000000D+01  .152500000000D+04  .000000000000D+00
     .240000000000D+01  .000000000000D+00 -.107102096081D-07  .340000000000D+02
     .201606000000D+06  .400000000000D+01
 8 09  3 31 10  0  0.0 -.196408480406D-03 -.136424205266D-11  .000000000000D+00
     .115000000000D+03 -.786875000000D+02  .366372403738D-08  .101483494230D+01
    -.409223139286D-05  .104860820575D-01  .864453613758D-05  .515367042923D+04
     .208800000000D+06  .143423676491D-06 -.247567157588D+01  .180676579475D-06
     .987948652644D+00  .228062500000D+03  .298428633356D+01 -.763353225297D-08
     .165364030933D-09  .100000000000D+01  .152500000000D+04  .000000000000D+00
     .240000000000D+01  .000000000000D+00 -.465661287308D-08  .115000000000D+03
     .201606000000D+06  .400000000000D+01
 9 09  3 31 10  0  0.0  .482723116875D-04  .204636307899D-11  .000000000000D+00
     .970000000000D+02 -.878750000000D+02  .410802825872D-08  .771928100875D+00
    -.475719571114D-05  .202939773444D-01  .889971852303D-05  .515364719963D+04
     .208800000000D+06 -.257045030594D-06 -.256923990254D+01 -.502914190292D-07
     .975746584608D+00  .219718750000D+03  .146536210628D+01 -.821784230612D-08
     .650027076237D-10  .100000000000D+01  .152500000000D+04  .000000000000D+00
     .340000000000D+01  .000000000000D+00 -.558793544769D-08  .970000000000D+02
     .201606000000D+06  .400000000000D+01
10 09  3 31 10  0  0.0 -.135614536703D-04 -.568434188608D-12  .000000000000D+00
     .950000000000D+02  .105031250000D+03  .442768443083D-08 -.193736224369D+01
     .541284680367D-05  .865678978153D-02  .465288758278D-05  .515357452011D+04
     .208800000000D+06  .149011611938D-07  .167841403008D+01 -.102445483208D-06
     .958831560669D+00  .290312500000D+03  .616426094267D+00 -.805390690612D-08
     .889322758148D-10  .100000000000D+01  .152500000000D+04  .000000000000D+00
     .340000000000D+01  .000000000000D+00 -.279396772385D-08  .950000000000D+02
     .201606000000D+06  .400000000000D+01
11 09  3 31 10  0  0.0  .286428257823D-05 -.125055521494D-11  .000000000000D+00
     .590000000000D+02  .134062500000D+02  .623311677719D-08  .155644608352D+01
     .832602381706D-06  .925014226232D-02  .988133251667D-05  .515367693138D+04
     .208800000000D+06 -.193715095520D-06  .396899972386D+00  .800937414169D-07
     .890080125101D+00  .154312500000D+03  .693100382550D+00 -.877000816318D-08
    -.568952270574D-09  .100000000000D+01  .152500000000D+04  .000000000000D+00
     .240000000000D+01  .000000000000D+00 -.121071934700D-07  .590000000000D+02
     .201606000000D+06  .400000000000D+01
12 09  3 31 10  0  0.0 -.299951527268D-03  .454747350886D-11  .000000000000D+00
     .170000000000D+02 -.137500000000D+02  .464305054455D-08  .183000250261D+01
    -.858679413795D-06  .334068527445D-02  .821240246296D-05  .515368573570D+04
     .208800000000D+06  .335276126862D-07 -.148302556057D+01  .149011611938D-07
     .966087758690D+00  .226500000000D+03 -.768988766372D+00 -.793711632704D-08
     .496092092798D-09  .100000000000D+01  .152500000000D+04  .000000000000D+00
     .240000000000D+01  .000000000000D+00 -.121071934700D-07  .170000000000D+02
     .201606000000D+06  .400000000000D+01
13 09  3 31 10  0  0.0  .293154735118D-03  .113686837722D-11  .000000000000D+00
     .260000000000D+02 -.315000000000D+02  .377730019686D-08 -.213874708859D+01
    -.160560011864D-05  .396367651410D-02  .269152224064D-05  .515373156738D+04
     .208800000000D+06  .115483999252D-06  .275741395935D+01  .316649675369D-07
     .995223251249D+00  .343937500000D+03  .152291731630D+01 -.788782855972D-08
    -.105361531588D-09  .100000000000D+01  .152500000000D+04  .000000000000D+00
     .240000000000D+01  .000000000000D+00 -.111758708954D-07  .260000000000D+02
     .201606000000D+06  .400000000000D+01
14 09  3 31 10  0  0.0 -.132930930704D-03  .568434188608D-11  .000000000000D+00
     .740000000000D+02 -.398125000000D+02  .387587573150D-08 -.243604464781D+01
    -.201724469662D-05  .437010114547D-02  .237859785557D-05  .515358912468D+04
     .208800000000D+06 -.633299350739D-07  .273827052204D+01 -.745058059692D-07
     .988754800966D+00  .350000000000D+03 -.211956529357D+01 -.796033157976D-08
    -.832177520677D-10  .100000000000D+01  .152500000000D+04  .000000000000D+00
     .240000000000D+01  .000000000000D+00 -.931322574615D-08  .740000000000D+02
     .201606000000D+06  .400000000000D+01
15 09  3 31 10  0  0.0 -.275588128716D-03 -.454747350886D-11  .000000000000D+00
     .940000000000D+02 -.396562500000D+02  .463483591666D-08 -.213056218190D+01
    -.192224979401D-05  .143760815263D-02  .253319740295D-05  .515359973335D+04
     .208800000000D+06  .484287738800D-07  .268761466628D+01 -.372529029846D-08
     .956796398776D+00  .330906250000D+03 -.562252058044D+00 -.838642075666D-08
    -.489306095849D-10  .100000000000D+01  .152500000000D+04  .000000000000D+00
     .340000000000D+01  .000000000000D+00 -.977888703346D-08  .940000000000D+02
     .201606000000D+06  .400000000000D+01
16 09  3 31 10  0  0.0  .632801093161D-04 -.306954461848D-11  .000000000000D+00
     .610000000000D+02 -.264687500000D+02  .454733227178D-08 -.684434816566D+00
    -.150129199028D-05  .526341458317D-02  .806711614132D-05  .515378627586D+04
     .208800000000D+06  .298023223877D-07 -.146615605387D+01 -.298023223877D-07
     .967576672824D+00  .224625000000D+03 -.373911771315D+00 -.794925969000D-08
     .574666794322D-09  .100000000000D+01  .152500000000D+04  .000000000000D+00
     .240000000000D+01  .000000000000D+00 -.977888703346D-08  .610000000000D+02
     .201606000000D+06  .400000000000D+01
17 09  3 31 10  0  0.0  .522891059518D-04  .159161572810D-11  .000000000000D+00
     .600000000000D+01 -.236562500000D+02  .497627871055D-08 -.177400403053D+01
    -.110454857349D-05  .438093533739D-02  .694021582603D-05  .515365208244D+04
     .208800000000D+06  .113621354103D-06 -.423790091964D+00  .167638063431D-07
     .959906866900D+00  .245156250000D+03 -.268609146866D+01 -.811819529828D-08
    -.144291724615D-09  .100000000000D+01  .152500000000D+04  .000000000000D+00
     .240000000000D+01  .000000000000D+00 -.102445483208D-07  .600000000000D+01
     .201606000000D+06  .400000000000D+01
18 09  3 31 10  0  0.0 -.698505900800D-04  .341060513165D-11  .000000000000D+00
     .430000000000D+02  .117093750000D+03  .490198990184D-08 -.538531468980D+00
     .604614615440D-05  .100615224801D-01  .430271029472D-05  .515376976204D+04
     .208800000000D+06  .104308128357D-06  .168472423358D+01  .158324837685D-06
     .942885294249D+00  .288437500000D+03 -.243596029888D+01 -.858500045687D-08
    -.282154610015D-10  .100000000000D+01  .152500000000D+04  .000000000000D+00
     .240000000000D+01  .000000000000D+00 -.107102096081D-07  .430000000000D+02
     .201606000000D+06  .400000000000D+01
19 09  3 31 10  0  0.0  .294391065836D-04 -.909494701773D-12  .000000000000D+00
     .420000000000D+02 -.145937500000D+02  .499770817461D-08 -.244248168632D+01
    -.732019543648D-06  .539880734868D-02  .733509659767D-05  .515357390594D+04
     .208800000000D+06 -.124797224998D-06 -.367579343155D+00  .167638063431D-07
     .957670019806D+00  .237625000000D+03 -.380346290675D+00 -.799819029959D-08
    -.222866426138D-09  .100000000000D+01  .152500000000D+04  .000000000000D+00
     .240000000000D+01  .000000000000D+00 -.149011611938D-07  .420000000000D+02
     .201606000000D+06  .400000000000D+01
